     3.03           N: GNSS NAV DATA    M: Mixed            RINEX VERSION / TYPE
GNSS-SDRLIB v1.1                        20230627 092825 UTC PGM / RUN BY / DATE 
                                                            END OF HEADER       
I02 2019 05 08 04 20 48  .148262828588D-03 -.301270119962D-10  .000000000000D+00
      .178000000000D+03  .694437500000D+04  .236724146225D-08 -.199002584918D+01
      .228621065617D-04  .210535305087D-02  .120475888252D-04  .649325396538D+04
      .274848000000D+06 -.931322574615D-07  .106943813432D+01  .271946191788D-06
      .506107553091D+00 -.286375000000D+04  .307662371414D+01 -.216294723829D-08
     -.204294223960D-09  .000000000000D+00  .205200000000D+04  .000000000000D+00
      .400000000000D+01  .000000000000D+00 -.186264514923D-08  .000000000000D+00
      .275160000000D+06  .000000000000D+00
I03 2019 05 08 04 20 48  .333329197019D-03 -.975433067651D-10  .000000000000D+00
      .178000000000D+03 -.674125000000D+04  .144248865687D-07  .265212739408D+01
     -.222213566303D-04  .179716362618D-02 -.733882188797D-06  .649349654579D+04
      .274848000000D+06  .756233930588D-06 -.180869483014D+00 -.286847352982D-06
      .347291631805D-01  .260625000000D+03  .169676775787D+00 -.133276980093D-07
     -.648955603034D-09  .000000000000D+00  .205200000000D+04  .000000000000D+00
      .200000000000D+01  .000000000000D+00 -.139698386192D-08  .000000000000D+00
      .275160000000D+06  .000000000000D+00
I04 2019 05 08 04 00 00  .143724959344D-03 -.250111042988D-11  .000000000000D+00
      .200000000000D+01  .773875000000D+04  .210008747707D-08 -.115779270873D+01
      .253319740295D-04  .233472557738D-02  .152550637722D-04  .649363626671D+04
      .273600000000D+06 -.208616256714D-06  .107129710675D+01 -.201165676117D-06
      .511726254241D+00 -.383312500000D+04 -.313747578560D+01 -.210580200082D-08
     -.386087510666D-09  .000000000000D+00  .205200000000D+04  .000000000000D+00
      .280000000000D+01  .000000000000D+00 -.139698386192D-08  .000000000000D+00
      .275160000000D+06  .000000000000D+00
I05 2019 05 08 04 00 00 -.362409278750D-03  .586624082644D-10  .000000000000D+00
      .200000000000D+01  .132500000000D+04  .348014496201D-08  .198469691114D+01
      .457838177681D-05  .194050034042D-02  .206716358662D-04  .649343847656D+04
      .273600000000D+06  .130385160446D-06 -.208765314738D+01  .327825546265D-06
      .509159149002D+00 -.551562500000D+04 -.312638307907D+01 -.311298681125D-08
      .113219001740D-08  .000000000000D+00  .205200000000D+04  .000000000000D+00
      .200000000000D+01  .000000000000D+00 -.465661287308D-09  .000000000000D+00
      .275160000000D+06  .000000000000D+00
I06 2019 05 08 04 20 48 -.177104957402D-03  .964064383879D-10  .000000000000D+00
      .178000000000D+03 -.309062500000D+04  .707029450615D-08 -.172310852245D+01
     -.102818012238D-04  .226045132149D-02  .169388949871D-04  .649328312302D+04
      .274848000000D+06 -.182539224625D-06  .345787118576D+00 -.175088644028D-06
      .490804304998D-01 -.509062500000D+04  .313744741816D+01 -.587595904299D-08
     -.730744724165D-09  .000000000000D+00  .205200000000D+04  .000000000000D+00
      .400000000000D+01  .000000000000D+00 -.186264514923D-08  .000000000000D+00
      .275160000000D+06  .000000000000D+00
I07 2019 05 08 04 20 48 -.333860982209D-03 -.871978045325D-10  .000000000000D+00
      .178000000000D+03 -.334312500000D+04  .855607068040D-08 -.214441773503D+00
     -.108815729618D-04  .485435593873D-03  .221394002438D-04  .649341953468D+04
      .274848000000D+06  .216066837311D-06  .384404526369D+00 -.298023223877D-07
      .499327309615D-01 -.676625000000D+04 -.299873881726D+01 -.753317092966D-08
     -.993255658799D-09  .000000000000D+00  .205200000000D+04  .000000000000D+00
      .280000000000D+01  .000000000000D+00 -.139698386192D-08  .000000000000D+00
      .275160000000D+06  .000000000000D+00
